STARLINK-6126           
1 56124U 23046AJ  25213.16015883  .00000646  00000+0  62869-4 0  9998
2 56124  43.0027 264.6977 0001502 276.1222  83.9449 15.02541555129571
STARLINK-6119           
1 56125U 23046AK  25212.48539553  .00000698  00000+0  66705-4 0  9998
2 56125  43.0033 268.2304 0001209 271.0367  89.0337 15.02537502128930
STARLINK-6124           
1 56126U 23046AL  25213.14351687  .00000879  00000+0  80102-4 0  9991
2 56126  43.0022 264.5706 0001186 273.0678  87.0028 15.02536432129572
STARLINK-6104           
1 56127U 23046AM  25213.20222565  .00000294  00000+0  36848-4 0  9990
2 56127  43.0028 264.1465 0001299 271.9045  88.1648 15.02534810129586
STARLINK-6122           
1 56128U 23046AN  25212.48761822  .00000340  00000+0  40248-4 0  9995
2 56128  43.0029 268.2465 0001190 271.5629  88.5077 15.02535721128937
STARLINK-6121           
1 56129U 23046AP  25212.40886532  .00000188  00000+0  29009-4 0  9996
2 56129  43.0023 216.6219 0001303 281.3917  78.6779 15.02539075129522
STARLINK-6117           
1 56130U 23046AQ  25213.20666449  .00000210  00000+0  30606-4 0  9991
2 56130  43.0031 264.1850 0001289 275.2910  84.7785 15.02537884129587
STARLINK-6120           
1 56131U 23046AR  25213.19223469  .00000569  00000+0  57193-4 0  9998
2 56131  43.0024 264.0706 0001093 272.2595  87.8122 15.02535044129583
STARLINK-6071           
1 56132U 23046AS  25212.20616711  .00000567  00000+0  57057-4 0  9993
2 56132  43.0024 269.5800 0001471 269.2706  90.7968 15.02535975128896
STARLINK-5566           
1 56133U 23046AT  25213.18224678 -.00000060  00000+0  10616-4 0  9998
2 56133  43.0028 263.9965 0001556 272.7687  87.2977 15.02534612129587
STARLINK-5564           
1 56134U 23046AU  25213.20000542  .00000276  00000+0  35538-4 0  9992
2 56134  43.0023 264.1344 0001202 272.4296  87.6408 15.02533973129580
STARLINK-5489           
1 56136U 23046AW  25213.19556549  .00000057  00000+0  19298-4 0  9997
2 56136  43.0022 264.0975 0001209 270.7832  89.2871 15.02536202129584
STARLINK-5090           
1 56137U 23046AX  25212.64154214  .00000504  00000+0  52365-4 0  9999
2 56137  43.0028 266.8169 0001048 263.2057  96.8666 15.02535315128964
STARLINK-4774           
1 56138U 23046AY  25213.18891368 -.00001175  00000+0 -71945-4 0  9990
2 56138  43.0018 264.0516 0001260 270.9260  89.1438 15.02530346129587
STARLINK-5375           
1 56140U 23046BA  25213.18668265 -.00005796  00000+0 -41387-3 0  9990
2 56140  43.0004 264.0354 0001949 269.8864  90.1755 15.02578596129589
STARLINK-5377           
1 56141U 23046BB  25212.64043042  .00000196  00000+0  29558-4 0  9995
2 56141  43.0025 266.8100 0001166 273.2174  86.8535 15.02538421128968
STARLINK-5376           
1 56142U 23046BC  25213.18336592 -.00001706  00000+0 -11125-3 0  9991
2 56142  43.0025 264.0033 0001338 286.7569  73.3127 15.02530180129583
STARLINK-5016           
1 56143U 23046BD  25213.16672003  .00007208  00000+0  54873-3 0  9998
2 56143  43.0006 263.8804 0000524 277.3478  82.7304 15.02490899129580
STARLINK-5374           
1 56144U 23046BE  25213.18003310 -.00000452  00000+0 -18429-4 0  9994
2 56144  43.0032 263.9823 0000873 259.6679 100.4065 15.02519598129585
STARLINK-5111           
1 56146U 23046BG  25213.16895005 -.00000868  00000+0 -49258-4 0  9999
2 56146  43.0020 263.8989 0000610 217.5702 142.5098 15.02524963129580
STARLINK-5140           
1 56147U 23046BH  25213.06013201  .00002893  00000+0  22900-3 0  9991
2 56147  43.0031 226.5706 0001304 257.5508 102.5189 15.02556393130003
STARLINK-5089           
1 56148U 23046BJ  25212.39871216 -.00000167  00000+0  27259-5 0  9992
2 56148  43.0018 230.2124 0001247 276.8202  83.2499 15.02538571129360
PIESAT A                
1 56153U 23047A   25212.53798485  .00001270  00000+0  72954-4 0  9997
2 56153  97.5041  39.2416 0001388  72.6552 287.4832 15.14299875129276
PIESAT B                
1 56154U 23047B   25212.53798422  .00001876  00000+0  10608-3 0  9998
2 56154  97.5012  39.2413 0001439 109.6734 250.4653 15.14302219129270
PIESAT C                
1 56155U 23047C   25212.53798645  .00000656  00000+0  39413-4 0  9997
2 56155  97.5025  39.2409 0001710  86.9939 273.1488 15.14298414129275
PIESAT D                
1 56156U 23047D   25212.53798263  .00001954  72160-9  10692-3 0  9999
2 56156  97.5044  39.2426 0001530 101.7986 258.3417 15.14301789130127
2023-048A               
1 56157U 23048A   25211.54347209 -.00000066  00000+0  40461-4 0  9997
2 56157  63.3991 204.4396 0070114 355.0129   5.0190 13.43080980114662
CHECKMATE 8             
1 56162U 23050A   25212.89329856  .00000096  00000+0  75283-4 0  9995
2 56162  81.0024  18.9287 0007193 104.0025 256.1931 13.84882093117815
CHECKMATE 5             
1 56163U 23050B   25212.93858662  .00000100  00000+0  78668-4 0  9999
2 56163  81.0012  18.7254 0007333 102.1127 258.0851 13.84913655117836
CHECKMATE 4             
1 56164U 23050C   25212.92789805  .00000064  00000+0  46671-4 0  9999
2 56164  81.0017  18.9131 0006290 114.9454 245.2356 13.84761698117817
CHECKMATE 6             
1 56165U 23050D   25212.92294941  .00000077  00000+0  58132-4 0  9991
2 56165  81.0048  19.0273 0007076 100.2330 259.9624 13.84889478117766
CHECKMATE 7             
1 56166U 23050E   25212.96054850  .00000043  00000+0  28621-4 0  9992
2 56166  81.0008  18.5536 0007001  99.3868 260.8080 13.84929858117776
CHECKMATE 2             
1 56167U 23050F   25212.84379147  .00000105  00000+0  83368-4 0  9997
2 56167  81.0050  18.9212 0007715  98.8334 261.3696 13.85080380117760
CHECKMATE 1             
1 56168U 23050G   25212.92570659  .00000072  00000+0  54024-4 0  9998
2 56168  81.0046  19.0141 0011767 128.0191 232.2029 13.84896847117767
CHECKMATE 3             
1 56169U 23050H   25212.94949715  .00000055  00000+0  38698-4 0  9994
2 56169  81.0032  18.5921 0007454  95.9467 264.2539 13.85102157117787
BB 2                    
1 56170U 23050J   25212.88734958  .00000089  00000+0  76416-4 0  9997
2 56170  81.0022  26.0522 0010368  79.4586 280.7735 13.79339351117317
BB 1                    
1 56171U 23050K   25212.96400571  .00000082  00000+0  69207-4 0  9991
2 56171  81.0022  25.8098 0015953  81.3862 278.9098 13.79331571117336
INTELSAT 40E (IS-40E)   
1 56174U 23052A   25212.43950972 -.00000168  00000+0  00000+0 0  9990
2 56174   0.0136 107.0502 0002292  39.5433 229.9181  1.00272882  8608
IMECE                   
1 56178U 23054A   25213.14561644  .00000338  00000+0  70836-4 0  9996
2 56178  98.1415 116.1467 0010975  98.1223 262.1226 14.65826749123526
BRO-9                   
1 56185U 23054H   25213.19454426  .00019292  00000+0  35080-3 0  9998
2 56185  97.3170 115.5344 0007208 119.6007 240.5964 15.49543807129084
GHGSAT-C8               
1 56186U 23054J   25213.19177889  .00010737  00000+0  24893-3 0  9999
2 56186  97.3226 113.9598 0007946 135.2208 224.9682 15.42557871128942
IT'S ABOUT TIME         
1 56189U 23054M   25212.82742180  .08319506  25725-5  68379-3 0  9991
2 56189  97.2932 127.4767 0007063 203.7981 156.2993 16.39851637129795
HAWK-7A                 
1 56191U 23054P   25212.77058791  .00007807  00000+0  28685-3 0  9995
2 56191  97.3136 102.0405 0008525 128.3508 231.8499 15.28149007128095
ION SCV-010             
1 56192U 23054Q   25213.18985719  .00004685  00000+0  20773-3 0  9992
2 56192  97.4165 101.8905 0012470 248.3438 111.6470 15.22023963127459
HAWK-7B                 
1 56193U 23054R   25212.63958140  .00007745  00000+0  28462-3 0  9993
2 56193  97.3088 100.0930 0009108 137.7501 222.4442 15.28144779128072
GHOST-1                 
1 56195U 23054T   25212.71885067  .00029920  00000+0  47951-3 0  9994
2 56195  97.3193 116.6889 0008667 114.0095 246.2066 15.53005241129101
GHOST-2                 
1 56197U 23054V   25212.70777557  .00050795  00000+0  51420-3 0  9999
2 56197  97.3184 120.7614 0008091 105.5476 254.6678 15.65097437129376
HAWK-7C                 
1 56200U 23054Y   25212.63941768  .00007754  00000+0  28499-3 0  9990
2 56200  97.3100 100.9199 0008381 135.3308 224.8608 15.28143485128076
NUSAT-39 (TIKVAH ALPER) 
1 56201U 23054Z   25213.16798186  .00021941  00000+0  56051-3 0  9993
2 56201  97.3284 117.1371 0009135 109.8769 250.3462 15.39442504129166
NUSAT-38 (MARIA AGNESI) 
1 56202U 23054AA  25213.16304846  .00020206  00000+0  52135-3 0  9992
2 56202  97.3250 117.3747 0015826 141.9445 218.2922 15.39066095129173
NUSAT-37 (JOAN CLARKE)  
1 56203U 23054AB  25213.01105553  .00025199  00000+0  61872-3 0  9995
2 56203  97.2887 113.9604 0005510  42.9894 317.1782 15.40651484129188
GHGSAT-C6               
1 56204U 23054AC  25213.15219004  .00010609  00000+0  24597-3 0  9991
2 56204  97.3257 114.4377 0011015 121.3539 238.8788 15.42531984128952
FACSAT-2                
1 56205U 23054AD  25213.14443039  .00077552  00000+0  54490-3 0  9993
2 56205  97.3207 125.5736 0007982  98.8782 261.3387 15.73885484129695
GHGSAT-C7               
1 56209U 23054AH  25213.16770706  .00008859  00000+0  21145-3 0  9998
2 56209  97.3219 113.9903 0011013 115.3011 244.9379 15.41708838128957
CONNECTA T2.1           
1 56210U 23054AJ  25213.11444050  .00082567  00000+0  57505-3 0  9992
2 56210  97.3133 123.6715 0008230  96.4897 263.7305 15.74072576129623
KEPLER-20               
1 56217U 23054AR  25212.88824854  .00165919  00000+0  13210-2 0  9993
2 56217  97.3201 119.8439 0011806 129.5059 230.7249 15.70602655129283
KEPLER-21               
1 56218U 23054AS  25212.70674007  .00025027  00000+0  43198-3 0  9992
2 56218  97.3132 115.1879 0007871 111.7034 248.5057 15.50967018129028
AAC-HSI-SAT1            
1 56225U 23054AZ  25213.17709791  .00001894  00000+0  11837-3 0  9992
2 56225  97.4123  95.0794 0011255 142.3944 217.8075 15.10583997127023
OUTPOST MISSION 1       
1 56226U 23084BK  25212.85498452  .00026299  00000+0  55143-3 0  9993
2 56226  97.5793 347.5098 0005116 357.6890   2.4333 15.45370639118952
